[{"OBJECT_NAME":"ONEWEB-0595","OBJECT_ID":"2022-166V","EPOCH":"2026-03-09T22:37:21.327744","MEAN_MOTION":13.2182539,"ECCENTRICITY":0.00018125,"INCLINATION":87.9171,"RA_OF_ASC_NODE":263.7571,"ARG_OF_PERICENTER":90.6849,"MEAN_ANOMALY":269.4492,"EPHEMERIS_TYPE":0,"CLASSIFICATION_TYPE":"U","NORAD_CAT_ID":54661,"ELEMENT_SET_NO":999,"REV_AT_EPOCH":15842,"BSTAR":-0.00050140173,"MEAN_MOTION_DOT":-1.94e-6,"MEAN_MOTION_DDOT":0},{"OBJECT_NAME":"THOR ABLESTAR DEB","OBJECT_ID":"1961-015GJ","EPOCH":"2026-03-09T13:29:21.435360","MEAN_MOTION":13.36434189,"ECCENTRICITY":0.02111931,"INCLINATION":66.693,"RA_OF_ASC_NODE":118.522,"ARG_OF_PERICENTER":28.4969,"MEAN_ANOMALY":88.4018,"EPHEMERIS_TYPE":0,"CLASSIFICATION_TYPE":"U","NORAD_CAT_ID":549,"ELEMENT_SET_NO":999,"REV_AT_EPOCH":14960,"BSTAR":0.00024224303,"MEAN_MOTION_DOT":7.5e-7,"MEAN_MOTION_DDOT":0}]
